[{"OBJECT_NAME":"CONNECTA IOT-12","OBJECT_ID":"2025-135AB","EPOCH":"2026-03-09T20:41:06.229824","MEAN_MOTION":15.2119731,"ECCENTRICITY":0.00020679,"INCLINATION":97.4617,"RA_OF_ASC_NODE":185.2328,"ARG_OF_PERICENTER":71.4086,"MEAN_ANOMALY":288.7374,"EPHEMERIS_TYPE":0,"CLASSIFICATION_TYPE":"U","NORAD_CAT_ID":64553,"ELEMENT_SET_NO":999,"REV_AT_EPOCH":3977,"BSTAR":0.0002684746,"MEAN_MOTION_DOT":5.919e-5,"MEAN_MOTION_DDOT":0},{"OBJECT_NAME":"SL-24 DEB","OBJECT_ID":"2008-040G","EPOCH":"2026-03-09T18:31:01.084512","MEAN_MOTION":15.22675803,"ECCENTRICITY":0.00142718,"INCLINATION":97.9814,"RA_OF_ASC_NODE":3.5579,"ARG_OF_PERICENTER":81.931,"MEAN_ANOMALY":278.3543,"EPHEMERIS_TYPE":0,"CLASSIFICATION_TYPE":"U","NORAD_CAT_ID":33318,"ELEMENT_SET_NO":999,"REV_AT_EPOCH":95458,"BSTAR":0.0007155905,"MEAN_MOTION_DOT":0.00016658,"MEAN_MOTION_DDOT":0}]
